OBJECT_NAME,OBJECT_ID,EPOCH,MEAN_MOTION,ECCENTRICITY,INCLINATION,RA_OF_ASC_NODE,ARG_OF_PERICENTER,MEAN_ANOMALY,EPHEMERIS_TYPE,CLASSIFICATION_TYPE,NORAD_CAT_ID,ELEMENT_SET_NO,REV_AT_EPOCH,BSTAR,MEAN_MOTION_DOT,MEAN_MOTION_DDOT
ONEWEB-0578,2023-043X,2026-07-20T08:00:01.817568,13.21826094,.00020007,87.9237,237.3764,85.6766,274.4596,0,U,56067,999,16261,.25439079E-4,.24E-6,0
ONEWEB-0579,2023-043Y,2026-07-20T04:09:53.153568,13.21824052,.00021072,87.9236,237.4064,101.9706,258.1664,0,U,56068,999,16260,-.17109648E-3,-.58E-6,0
ONEWEB-0581,2023-043Z,2026-07-20T06:50:18.100608,13.16594831,.00014861,87.9073,222.2093,94.6533,265.4768,0,U,56069,999,16331,.43991306E-4,.3E-6,0
ONEWEB-0609,2023-043AA,2026-07-20T11:52:04.485504,13.15547670,.00021207,87.8977,252.5744,95.1555,264.9817,0,U,56070,999,16081,-.14872457E-4,.7E-7,0
ONEWEB-0613,2023-043AB,2026-07-20T04:30:33.698592,13.15547947,.00022071,87.8977,252.6480,102.1075,258.0303,0,U,56071,999,16077,-.11326405E-3,-.3E-6,0
ONEWEB-0630,2023-043AC,2026-07-20T09:52:16.087584,13.15549098,.00022212,87.8983,252.5768,102.2872,257.8507,0,U,56072,999,16079,-.35138969E-3,-.119E-5,0
ONEWEB-0632,2023-043AD,2026-07-20T04:16:52.599648,13.15548122,.00019062,87.8977,252.6396,98.9228,261.2118,0,U,56073,999,16076,-.36447417E-3,-.124E-5,0
ONEWEB-0633,2023-043AE,2026-07-20T09:36:18.681408,13.15549169,.00024682,87.8987,252.5736,101.7482,258.3926,0,U,56074,999,16077,-.19698855E-3,-.61E-6,0
ONEWEB-0634,2023-043AF,2026-07-20T03:47:12.838272,13.15548428,.00022118,87.8977,252.6590,87.9571,272.1813,0,U,56075,999,16073,-.26520389E-3,-.87E-6,0
ONEWEB-0635,2023-043AG,2026-07-20T03:40:21.904320,13.15548597,.00017461,87.8991,252.6258,97.9860,262.1468,0,U,56076,999,16076,.13654935E-3,.64E-6,0
ONEWEB-0636,2023-043AH,2026-07-20T08:57:31.228704,13.15548066,.00018038,87.8986,252.5875,96.8915,263.2420,0,U,56077,999,16077,.15367839E-3,.71E-6,0
ONEWEB-0637,2023-043AJ,2026-07-20T05:09:21.020832,13.15548384,.00018527,87.8982,252.6334,89.9344,270.1999,0,U,56078,999,16077,.15789685E-3,.72E-6,0
ONEWEB-0647,2023-043AK,2026-07-20T05:02:29.889888,13.15548921,.00019252,87.8981,252.6469,100.7963,259.3385,0,U,56079,999,16076,.20102284E-3,.89E-6,0
ONEWEB-0651,2023-043AL,2026-07-20T14:03:16.802496,13.15548208,.00018182,87.8976,252.5652,94.4758,265.6580,0,U,56080,999,16201,.54338088E-3,.217E-5,0
ONEWEB-0718,2023-043AM,2026-07-20T10:17:22.235712,13.15550027,.00024412,87.8981,252.5775,89.5501,270.5909,0,U,56081,999,16080,.30050176E-3,.126E-5,0
ONEWEB-0561,2023-068A,2026-07-20T05:27:47.220768,13.20771364,.00018055,87.9179,267.8596,105.9161,254.2172,0,U,56710,999,15386,-.33472025E-4,-.1E-7,0
ONEWEB-0668,2023-068B,2026-07-20T11:42:08.050752,13.16594666,.00022221,87.9077,222.1576,78.8601,281.2780,0,U,56711,999,15616,.58779443E-4,.35E-6,0
ONEWEB-0676,2023-068C,2026-07-20T02:46:20.523648,13.16606817,.00017731,87.9076,222.2378,92.5390,267.5944,0,U,56712,999,15603,-.49020781E-2,-.1861E-4,0
ONEWEB-0677,2023-068D,2026-07-20T05:10:49.806336,13.20772287,.00017953,87.9176,267.8531,89.4308,270.7031,0,U,56713,999,15416,.2519588E-3,.115E-5,0
ONEWEB-0678,2023-068E,2026-07-20T04:03:11.036736,13.15548459,.0002116,87.8986,252.6241,104.2760,255.8605,0,U,56714,999,15362,-.20428908E-3,-.64E-6,0
ONEWEB-0679,2023-068F,2026-07-20T07:15:23.510016,13.16594685,.00018253,87.9081,222.1919,77.0309,283.1025,0,U,56715,999,15608,-.97149135E-4,-.24E-6,0
ONEWEB-0680,2023-068G,2026-07-20T04:12:18.797184,13.21826137,.00020913,87.9237,237.4077,77.9277,282.2091,0,U,56716,999,15545,-.15295091E-3,-.5E-6,0
ONEWEB-0681,2023-068H,2026-07-20T09:11:27.057984,13.21827487,.00011251,87.9236,237.3668,104.2001,255.9258,0,U,56717,999,15547,-.16574772E-3,-.55E-6,0
ONEWEB-0682,2023-068J,2026-07-20T04:37:24.730176,13.15548881,.00020422,87.8982,252.6196,81.9072,278.2290,0,U,56718,999,15379,.53497588E-4,.33E-6,0
ONEWEB-0683,2023-068K,2026-07-20T05:11:37.900032,13.15548455,.00021369,87.8989,252.6151,91.4426,268.6949,0,U,56719,999,15376,.14051959E-3,.66E-6,0
ONEWEB-0684,2023-068L,2026-07-20T05:23:01.817376,13.15549249,.00031341,87.8988,252.6029,114.5279,245.6179,0,U,56720,999,15359,-.18591509E-4,.6E-7,0
ONEWEB-0686,2023-068M,2026-07-20T11:46:42.628224,13.16594082,.00023776,87.9067,222.1749,90.0260,270.1144,0,U,56721,999,15609,.65489065E-4,.38E-6,0
ONEWEB-0694,2023-068N,2026-07-20T08:16:57.703584,13.16593176,.00021621,87.9090,222.1750,80.3730,279.7645,0,U,56722,999,15613,.31135331E-3,.132E-5,0
ONEWEB-0696,2023-068P,2026-07-20T09:49:59.001024,13.15549295,.0002154,87.8973,252.6015,109.5529,250.5834,0,U,56723,999,15373,-.28596527E-3,-.95E-6,0
ONEWEB-0703,2023-068Q,2026-07-20T10:03:41.408064,13.15547498,.00019454,87.8976,252.5812,123.1139,237.0179,0,U,56724,999,15362,.33944609E-4,.26E-6,0
